{"type": "FeatureCollection", "features": [ {"type": "Feature", "properties": {"norad_id": 33153, "name": "INTELSAT 25 (IS-25)", "group": "intelsat", "lat": 1.4499602765257846, "lon": -138.59766006180251, "alt_km": 35770.6144350071, "timestamp": "2025-12-10T11:33:53.059091+00:00", "meta": {"OBJECT_NAME": "INTELSAT 25 (IS-25)", "OBJECT_ID": "2008-034A", "EPOCH": "2025-12-09T20:16:17.404896", "MEAN_MOTION": 1.00270258, "ECCENTRICITY": 0.0005379, "INCLINATION": 2.2204, "RA_OF_ASC_NODE": 82.6784, "ARG_OF_PERICENTER": 184.9843, "MEAN_ANOMALY": 83.7399, "EPHEMERIS_TYPE": 0, "CLASSIFICATION_TYPE": "U", "NORAD_CAT_ID": 33153, "ELEMENT_SET_NO": 999, "REV_AT_EPOCH": 6379, "BSTAR": 0, "MEAN_MOTION_DOT": -2.21e-06, "MEAN_MOTION_DDOT": 0}, "tle": {"line1": "1 33153U 08034A   25343.84464589 -.00000221  00000+0  00000+0 0  9999", "line2": "2 33153   2.2204  82.6784 0005379 184.9843  83.7399  1.00270258 63792"}}, "geometry": {"type": "Point", "coordinates": [-138.59766006180251, 1.4499602765257846]}}, {"type": "Feature", "properties": {"norad_id": 33376, "name": "GALAXY 19 (G-19)", "group": "intelsat", "lat": 0.0012446587928800889, "lon": 155.92301481366903, "alt_km": 35788.59420018875, "timestamp": "2025-12-10T11:33:53.059103+00:00", "meta": {"OBJECT_NAME": "GALAXY 19 (G-19)", "OBJECT_ID": "2008-045A", "EPOCH": "2025-12-10T04:23:38.620032", "MEAN_MOTION": 1.00278274, "ECCENTRICITY": 0.0003016, "INCLINATION": 0.0172, "RA_OF_ASC_NODE": 336.4091, "ARG_OF_PERICENTER": 289.353, "MEAN_ANOMALY": 142.3352, "EPHEMERIS_TYPE": 0, "CLASSIFICATION_TYPE": "U", "NORAD_CAT_ID": 33376, "ELEMENT_SET_NO": 999, "REV_AT_EPOCH": 6300, "BSTAR": 0, "MEAN_MOTION_DOT": -1.37e-06, "MEAN_MOTION_DDOT": 0}, "tle": {"line1": "1 33376U 08045A   25344.18308588 -.00000137  00000+0  00000+0 0  9998", "line2": "2 33376   0.0172 336.4091 0003016 289.3530 142.3352  1.00278274 63000"}}, "geometry": {"type": "Point", "coordinates": [155.92301481366903, 0.0012446587928800889]}}, {"type": "Feature", "properties": {"norad_id": 35493, "name": "FM-5", "group": "intelsat", "lat": -0.018076338385037458, "lon": 166.78174873339, "alt_km": 35783.87449374745, "timestamp": "2025-12-10T11:33:53.059115+00:00", "meta": {"OBJECT_NAME": "FM-5", "OBJECT_ID": "2009-034A", "EPOCH": "2025-12-10T02:10:38.678016", "MEAN_MOTION": 1.00270729, "ECCENTRICITY": 6.09e-05, "INCLINATION": 0.0185, "RA_OF_ASC_NODE": 289.7385, "ARG_OF_PERICENTER": 244.8327, "MEAN_ANOMALY": 211.0208, "EPHEMERIS_TYPE": 0, "CLASSIFICATION_TYPE": "U", "NORAD_CAT_ID": 35493, "ELEMENT_SET_NO": 999, "REV_AT_EPOCH": 4474, "BSTAR": 0, "MEAN_MOTION_DOT": -1.97e-06, "MEAN_MOTION_DDOT": 0}, "tle": {"line1": "1 35493U 09034A   25344.09072544 -.00000197  00000+0  00000+0 0  9995", "line2": "2 35493   0.0185 289.7385 0000609 244.8327 211.0208  1.00270729 44748"}}, "geometry": {"type": "Point", "coordinates": [166.78174873339, -0.018076338385037458]}}, {"type": "Feature", "properties": {"norad_id": 36097, "name": "INTELSAT 14 (IS-14)", "group": "intelsat", "lat": -0.018067354698501837, "lon": -152.0998553446531, "alt_km": 35780.71898268645, "timestamp": "2025-12-10T11:33:53.059127+00:00", "meta": {"OBJECT_NAME": "INTELSAT 14 (IS-14)", "OBJECT_ID": "2009-064A", "EPOCH": "2025-12-09T20:12:25.275744", "MEAN_MOTION": 1.00270287, "ECCENTRICITY": 0.0002657, "INCLINATION": 0.0097, "RA_OF_ASC_NODE": 353.7968, "ARG_OF_PERICENTER": 272.7981, "MEAN_ANOMALY": 70.3417, "EPHEMERIS_TYPE": 0, "CLASSIFICATION_TYPE": "U", "NORAD_CAT_ID": 36097, "ELEMENT_SET_NO": 999, "REV_AT_EPOCH": 5870, "BSTAR": 0, "MEAN_MOTION_DOT": -2.71e-06, "MEAN_MOTION_DDOT": 0}, "tle": {"line1": "1 36097U 09064A   25343.84195921 -.00000271  00000+0  00000+0 0  9999", "line2": "2 36097   0.0097 353.7968 0002657 272.7981  70.3417  1.00270287 58709"}}, "geometry": {"type": "Point", "coordinates": [-152.0998553446531, -0.018067354698501837]}}, {"type": "Feature", "properties": {"norad_id": 36106, "name": "INTELSAT 15 (IS-15)", "group": "intelsat", "lat": 0.020547352978241125, "lon": -21.901453740770226, "alt_km": 35783.064391760214, "timestamp": "2025-12-10T11:33:53.059139+00:00", "meta": {"OBJECT_NAME": "INTELSAT 15 (IS-15)", "OBJECT_ID": "2009-067A", "EPOCH": "2025-12-10T00:35:38.775840", "MEAN_MOTION": 1.00270865, "ECCENTRICITY": 0.0002455, "INCLINATION": 0.027, "RA_OF_ASC_NODE": 287.2149, "ARG_OF_PERICENTER": 339.4396, "MEAN_ANOMALY": 266.412, "EPHEMERIS_TYPE": 0, "CLASSIFICATION_TYPE": "U", "NORAD_CAT_ID": 36106, "ELEMENT_SET_NO": 999, "REV_AT_EPOCH": 3933, "BSTAR": 0, "MEAN_MOTION_DOT": -1.82e-06, "MEAN_MOTION_DDOT": 0}, "tle": {"line1": "1 36106U 09067A   25344.02475435 -.00000182  00000+0  00000+0 0  9996", "line2": "2 36106   0.0270 287.2149 0002455 339.4396 266.4120  1.00270865 39331"}}, "geometry": {"type": "Point", "coordinates": [-21.901453740770226, 0.020547352978241125]}}, {"type": "Feature", "properties": {"norad_id": 36131, "name": "DIRECTV 12", "group": "intelsat", "lat": 0.020511672913357305, "lon": 150.2314536189144, "alt_km": 35787.588359077294, "timestamp": "2025-12-10T11:33:53.059151+00:00", "meta": {"OBJECT_NAME": "DIRECTV 12", "OBJECT_ID": "2009-075A", "EPOCH": "2025-12-10T04:31:38.802720", "MEAN_MOTION": 1.00278488, "ECCENTRICITY": 8.31e-05, "INCLINATION": 0.0399, "RA_OF_ASC_NODE": 141.5223, "ARG_OF_PERICENTER": 202.9692, "MEAN_ANOMALY": 59.8853, "EPHEMERIS_TYPE": 0, "CLASSIFICATION_TYPE": "U", "NORAD_CAT_ID": 36131, "ELEMENT_SET_NO": 999, "REV_AT_EPOCH": 4465, "BSTAR": 0, "MEAN_MOTION_DOT": -1.01e-06, "MEAN_MOTION_DDOT": 0}, "tle": {"line1": "1 36131U 09075A   25344.18864355 -.00000101  00000+0  00000+0 0  9994", "line2": "2 36131   0.0399 141.5223 0000831 202.9692  59.8853  1.00278488 44652"}}, "geometry": {"type": "Point", "coordinates": [150.2314536189144, 0.020511672913357305]}}, {"type": "Feature", "properties": {"norad_id": 36397, "name": "INTELSAT 16 (IS-16)", "group": "intelsat", "lat": -0.015896404459907025, "lon": 176.6929036964148, "alt_km": 35786.075526194305, "timestamp": "2025-12-10T11:33:53.059162+00:00", "meta": {"OBJECT_NAME": "INTELSAT 16 (IS-16)", "OBJECT_ID": "2010-006A", "EPOCH": "2025-12-10T04:15:38.659392", "MEAN_MOTION": 1.00270158, "ECCENTRICITY": 0.0002253, "INCLINATION": 0.013, "RA_OF_ASC_NODE": 313.914, "ARG_OF_PERICENTER": 309.8505, "MEAN_ANOMALY": 163.0994, "EPHEMERIS_TYPE": 0, "CLASSIFICATION_TYPE": "U", "NORAD_CAT_ID": 36397, "ELEMENT_SET_NO": 999, "REV_AT_EPOCH": 5775, "BSTAR": 0, "MEAN_MOTION_DOT": -2.41e-06, "MEAN_MOTION_DDOT": 0}, "tle": {"line1": "1 36397U 10006A   25344.17753078 -.00000241  00000+0  00000+0 0  9997", "line2": "2 36397   0.0130 313.9140 0002253 309.8505 163.0994  1.00270158 57757"}}, "geometry": {"type": "Point", "coordinates": [176.6929036964148, -0.015896404459907025]}}, {"type": "Feature", "properties": {"norad_id": 37185, "name": "XM-5", "group": "intelsat", "lat": -0.03589259928617467, "lon": 137.72090960086783, "alt_km": 35780.51567661068, "timestamp": "2025-12-10T11:33:53.059174+00:00", "meta": {"OBJECT_NAME": "XM-5", "OBJECT_ID": "2010-053A", "EPOCH": "2025-12-10T04:39:38.509344", "MEAN_MOTION": 1.00269464, "ECCENTRICITY": 0.0001519, "INCLINATION": 0.0618, "RA_OF_ASC_NODE": 272.7422, "ARG_OF_PERICENTER": 238.3353, "MEAN_ANOMALY": 242.8089, "EPHEMERIS_TYPE": 0, "CLASSIFICATION_TYPE": "U", "NORAD_CAT_ID": 37185, "ELEMENT_SET_NO": 999, "REV_AT_EPOCH": 5558, "BSTAR": 0, "MEAN_MOTION_DOT": -1.9e-07, "MEAN_MOTION_DDOT": 0}, "tle": {"line1": "1 37185U 10053A   25344.19419571 -.00000019  00000+0  00000+0 0  9997", "line2": "2 37185   0.0618 272.7422 0001519 238.3353 242.8089  1.00269464 55588"}}, "geometry": {"type": "Point", "coordinates": [137.72090960086783, -0.03589259928617467]}}, {"type": "Feature", "properties": {"norad_id": 37238, "name": "INTELSAT 17 (IS-17)", "group": "intelsat", "lat": 0.0032574504286457333, "lon": -41.03555487604446, "alt_km": 35780.302473112366, "timestamp": "2025-12-10T11:33:53.059186+00:00", "meta": {"OBJECT_NAME": "INTELSAT 17 (IS-17)", "OBJECT_ID": "2010-065B", "EPOCH": "2025-12-10T00:45:38.639808", "MEAN_MOTION": 1.00272545, "ECCENTRICITY": 0.0002437, "INCLINATION": 0.0135, "RA_OF_ASC_NODE": 288.0536, "ARG_OF_PERICENTER": 333.432, "MEAN_ANOMALY": 254.9533, "EPHEMERIS_TYPE": 0, "CLASSIFICATION_TYPE": "U", "NORAD_CAT_ID": 37238, "ELEMENT_SET_NO": 999, "REV_AT_EPOCH": 5135, "BSTAR": 0, "MEAN_MOTION_DOT": 1e-08, "MEAN_MOTION_DDOT": 0}, "tle": {"line1": "1 37238U 10065B   25344.03169722  .00000001  00000+0  00000+0 0  9992", "line2": "2 37238   0.0135 288.0536 0002437 333.4320 254.9533  1.00272545 51351"}}, "geometry": {"type": "Point", "coordinates": [-41.03555487604446, 0.0032574504286457333]}}, {"type": "Feature", "properties": {"norad_id": 37392, "name": "INTELSAT 28 (IS-28)", "group": "intelsat", "lat": 0.8977139732679528, "lon": -138.79429319050732, "alt_km": 35773.48820583426, "timestamp": "2025-12-10T11:33:53.059197+00:00", "meta": {"OBJECT_NAME": "INTELSAT 28 (IS-28)", "OBJECT_ID": "2011-016A", "EPOCH": "2025-12-09T20:16:17.404896", "MEAN_MOTION": 1.00272229, "ECCENTRICITY": 0.0003962, "INCLINATION": 1.3173, "RA_OF_ASC_NODE": 85.0894, "ARG_OF_PERICENTER": 178.4571, "MEAN_ANOMALY": 87.656, "EPHEMERIS_TYPE": 0, "CLASSIFICATION_TYPE": "U", "NORAD_CAT_ID": 37392, "ELEMENT_SET_NO": 999, "REV_AT_EPOCH": 5138, "BSTAR": 0, "MEAN_MOTION_DOT": -2.22e-06, "MEAN_MOTION_DDOT": 0}, "tle": {"line1": "1 37392U 11016A   25343.84464589 -.00000222  00000+0  00000+0 0  9993", "line2": "2 37392   1.3173  85.0894 0003962 178.4571  87.6560  1.00272229 51382"}}, "geometry": {"type": "Point", "coordinates": [-138.79429319050732, 0.8977139732679528]}}]}